From:	Horizons Ephemeris System <horizons@ssd.jpl.nasa.gov>
Sent:	Wednesday, March 4, 2020 9:57 AM
Subject:	[Horizons] MAJOR BODY #C(usr={0.,-30.,.600^G}@301)_T(301) (1/1)

 Automated mail xmit by MAIL_REQUEST, PID= 32007 Wed Mar  4 07:56:41 2020
++++++++++++++++++++++++++++++++ (part 1 of 1)  +++++++++++++++++++++++++++++++
*******************************************************************************
 Revised: July 31, 2013             Moon / (Earth)                          301
 
 GEOPHYSICAL DATA (updated 2018-Aug-15):
  Vol. mean radius, km  = 1737.53+-0.03    Mass, x10^22 kg       =    7.349
  Radius (gravity), km  = 1738.0           Surface emissivity    =    0.92
  Radius (IAU), km      = 1737.4           GM, km^3/s^2          = 4902.800066
  Density, g/cm^3       =    3.3437        GM 1-sigma, km^3/s^2  =  +-0.0001  
  V(1,0)                =   +0.21          Surface accel., m/s^2 =    1.62
  Earth/Moon mass ratio = 81.3005690769    Farside crust. thick. = ~80 - 90 km
  Mean crustal density  = 2.97+-.07 g/cm^3 Nearside crust. thick.= 58+-8 km 
  Heat flow, Apollo 15  = 3.1+-.6 mW/m^2   Mean angular diameter = 31'05.2"
  Heat flow, Apollo 17  = 2.2+-.5 mW/m^2   Sid. rot. rate, rad/s = 0.0000026617
  Geometric Albedo      = 0.12             Mean solar day        = 29.5306 d
  Obliquity to orbit    = 6.67 deg         Orbit period          = 27.321582 d
  Semi-major axis, a    = 384400 km        Eccentricity          = 0.05490
  Mean motion, rad/s    = 2.6616995x10^-6  Inclination           = 5.145 deg
  Apsidal period        = 3231.50 d        Nodal period          = 6798.38 d
                                 Perihelion  Aphelion    Mean
  Solar Constant (W/m^2)         1414+-7     1323+-7     1368+-7
  Maximum Planetary IR (W/m^2)   1314        1226        1268
  Minimum Planetary IR (W/m^2)      5.2         5.2         5.2
 *******************************************************************************
 
 
*******************************************************************************
Ephemeris / MAIL_REQUEST Wed Mar  4 07:56:40 2020 Pasadena, USA  / Horizons    
*******************************************************************************
Target body name: Moon (301)                      {source: DE431mx}
Center body name: Moon (301)                      {source: DE431mx}
Center-site name: (user defined site below)
*******************************************************************************
Start time      : A.D. 2020-Jan-01 00:00:00.0000 TDB
Stop  time      : A.D. 2039-Jan-01 00:00:00.0000 TDB
Step-size       : 10000 steps
*******************************************************************************
Center geodetic : 0.00000000,-30.000000,0.6000000 {E-lon(deg),Lat(deg),Alt(km)}
Center cylindric: 0.00000000,1505.15215,-869.0000 {E-lon(deg),Dxy(km),Dz(km)}
Center pole/equ : IAU_MOON                        {East-longitude positive}
Center radii    : 1737.4 x 1737.4 x 1737.4 km     {Equator, meridian, pole}    
Output units    : KM-S                                                         
Output type     : GEOMETRIC cartesian states
Output format   : 3 (position, velocity, LT, range, range-rate)
Reference frame : ICRF/J2000.0                                                 
Coordinate systm: Ecliptic and Mean Equinox of Reference Epoch                 
*******************************************************************************
JDTDB
   X     Y     Z
   VX    VY    VZ
   LT    RG    RR
*******************************************************************************
$$SOE
2462057.862000001 = A.D. 2028-Oct-13 08:41:16.8001 TDB 
  -1.122992273584266E+03  9.845016268523328E+02  8.889819459331832E+02
  -2.599283457147719E-03 -3.048592843100555E-03  9.265584614783330E-05
   5.797343974543881E-03  1.737999999999999E+03  2.395475455894326E-20
2462058.556000001 = A.D. 2028-Oct-14 01:20:38.4001 TDB 
  -1.263635572206877E+03  7.900621473861357E+02  8.942432241403925E+02
  -2.081872562884399E-03 -3.423103967025792E-03  8.245703368124787E-05
   5.797343974543880E-03  1.737999999999999E+03  6.387934549051536E-19
2462059.250000001 = A.D. 2028-Oct-14 18:00:00.0001 TDB 
  -1.371599168835478E+03  5.757321693142551E+02  8.988282312358276E+02
  -1.511576396388241E-03 -3.710627042248225E-03  7.014736013084464E-05
   5.797343974543881E-03  1.738000000000000E+03 -2.235777092168037E-19
2462059.944000001 = A.D. 2028-Oct-15 10:39:21.6001 TDB 
  -1.444140575483286E+03  3.469579960139175E+02  9.026196027368392E+02
  -9.028844085328287E-04 -3.903863890065864E-03  5.604219376743489E-05
   5.797343974543881E-03  1.738000000000000E+03 -1.596983637262884E-19
2462060.638000001 = A.D. 2028-Oct-16 03:18:43.2001 TDB 
  -1.479417196192974E+03  1.095525388240683E+02  9.055202928955927E+02
  -2.712591474753219E-04 -3.997910408068634E-03  4.050244713806484E-05
   5.797343974543882E-03  1.738000000000000E+03  7.186426367682976E-20
2462061.332000001 = A.D. 2028-Oct-16 19:58:04.8001 TDB 
  -1.476533017155007E+03 -1.304522606404434E+02  9.074560358193271E+02
   3.672558659234959E-04 -3.990380418177415E-03  2.392541848453343E-05
   5.797343974543881E-03  1.738000000000000E+03  4.471554184336075E-19
2462062.026000001 = A.D. 2028-Oct-17 12:37:26.4001 TDB 
  -1.435561297538904E+03 -3.669585365260488E+02  9.083772308237786E+02
   9.964428183678777E-04 -3.881465835669996E-03  6.734782003119154E-06
   5.797343974543882E-03  1.738000000000000E+03  2.230786518301591E-19
2462062.720000001 = A.D. 2028-Oct-18 05:16:48.0001 TDB 
  -1.357542693824704E+03 -5.939572626290879E+02  9.082602075470033E+02
   1.600320611133137E-03 -3.673931686645835E-03 -1.063005313381351E-05
   5.797343974543882E-03  1.738000000000000E+03 -4.501497627534753E-19
2462063.414000001 = A.D. 2028-Oct-18 21:56:09.6001 TDB 
  -1.244458867887481E+03 -8.056807638313373E+02  9.071078397458379E+02
   2.163549869162133E-03 -3.373046119954765E-03 -2.772498755485887E-05
   5.797343974543882E-03  1.738000000000000E+03 -2.395475455894325E-19
2462064.108000001 = A.D. 2028-Oct-19 14:35:31.2001 TDB 
  -1.099182244783801E+03 -9.967491219548086E+02  9.049494906536836E+02
   2.671821781793554E-03 -2.986447170834950E-03 -4.411244155873143E-05
   5.797343974543883E-03  1.738000000000000E+03 -9.981147732893022E-20
2462064.802000001 = A.D. 2028-Oct-20 07:14:52.8001 TDB 
  -9.254031852661129E+02 -1.162306775564953E+03  9.018402875094529E+02
   3.112221004130885E-03 -2.523949600887034E-03 -5.937247710291157E-05
   5.797343974543882E-03  1.738000000000000E+03  1.716757410057600E-19
2462065.496000001 = A.D. 2028-Oct-20 23:54:14.4001 TDB 
  -7.275364060149251E+02 -1.298145857728034E+03  8.978597384817033E+02
   3.473553483435749E-03 -1.997296627139731E-03 -7.311356431590854E-05
   5.797343974543881E-03  1.738000000000000E+03 -5.988688639735814E-19
2462066.190000001 = A.D. 2028-Oct-21 16:33:36.0001 TDB 
  -5.106090037695419E+02 -1.400813146149389E+03  8.931097216157295E+02
   3.746630931927042E-03 -1.419862728411668E-03 -8.498271400055729E-05
   5.797343974543881E-03  1.738000000000000E+03 -3.114118092662624E-19
2462066.884000001 = A.D. 2028-Oct-22 09:12:57.6001 TDB 
  -2.801329050607357E+02 -1.467697908915696E+03  8.877118922638840E+02
   3.924504728100377E-03 -8.063149479315857E-04 -9.467469494519546E-05
   5.797343974543882E-03  1.738000000000000E+03 -1.117888546084019E-19
2462067.578000001 = A.D. 2028-Oct-23 01:52:19.2001 TDB 
  -4.196495968967815E+01 -1.497098406511852E+03  8.818045721008230E+02
   4.002643270228690E-03 -1.722411681824837E-04 -1.019400644751363E-04
   5.797343974543883E-03  1.738000000000000E+03  0.000000000000000E+00
2462068.272000001 = A.D. 2028-Oct-23 18:31:40.8001 TDB 
   1.978417866983296E+02 -1.488265345763284E+03  8.755391984577878E+02
   3.979048201786750E-03  4.662453097807972E-04 -1.065917649298007E-04
   5.797343974543882E-03  1.738000000000000E+03  1.596983637262883E-20
2462068.966000001 = A.D. 2028-Oct-24 11:11:02.4001 TDB 
   4.331918760331120E+02 -1.441421161058378E+03  8.690764264390277E+02
   3.854306448294811E-03  1.092914918336599E-03 -1.085100777649539E-04
   5.797343974543882E-03  1.738000000000000E+03 -7.186426367682975E-20
2462069.660000001 = A.D. 2028-Oct-25 03:50:24.0001 TDB 
   6.581023766256113E+02 -1.357754608572327E+03  8.625819872802412E+02
   3.631576613762070E-03  1.691834353732105E-03 -1.076457786776071E-04
   5.797343974543883E-03  1.738000000000000E+03  1.596983637262883E-19
2462070.354000001 = A.D. 2028-Oct-25 20:29:45.6001 TDB 
   8.668550393360706E+02 -1.239390785233146E+03  8.562224140121682E+02
   3.316509944383298E-03  2.247772001451668E-03 -1.040213978693202E-04
   5.797343974543882E-03  1.738000000000000E+03  6.387934549051535E-19
2462071.048000001 = A.D. 2028-Oct-26 13:09:07.2001 TDB 
   1.054141795634514E+03 -1.089337310044234E+03  8.501607492951161E+02
   2.917107736105826E-03  2.746585908378533E-03 -9.773055487253082E-05
   5.797343974543882E-03  1.738000000000000E+03  3.513364001978344E-19
2462071.742000001 = A.D. 2028-Oct-27 05:48:28.8001 TDB 
   1.215199883875298E+03 -9.114080151507621E+02  8.445523501526768E+02
   2.443518698377036E-03  3.175584356226125E-03 -8.893540281955620E-05
   5.797343974543882E-03  1.738000000000000E+03 -3.992459093157209E-20
2462072.436000001 = A.D. 2028-Oct-27 22:27:50.4001 TDB 
   1.345933148003747E+03 -7.101260717065380E+02  8.395409003660052E+02
   1.907781344958749E-03  3.523849755125386E-03 -7.786227854225778E-05
   5.797343974543882E-03  1.738000000000000E+03 -3.912609911294065E-19
2462073.130000001 = A.D. 2028-Oct-28 15:07:12.0001 TDB 
   1.443016400738883E+03 -4.906090060122185E+02  8.352547338496806E+02
   1.323517921726612E-03  3.782517488367412E-03 -6.479570882780795E-05
   5.797343974543882E-03  1.737999999999999E+03  4.152157456883498E-19
